norad_id,name,regime,epoch,line1,line2,inclination,eccentricity,mean_motion,raan,arg_pericenter,mean_anomaly
19751,COSMOS 1989 (ETALON 1),NSO,24267.78407882,1 19751U 89001C   24267.78407882  .00000024  00000-0  00000-0 0    16\,2 19751  64.5995  93.8483 0023736 215.8784 155.7984  2.13156153277916,64.5995,0.0023736,2.13156153,93.8483,215.8784,155.7984
19751,COSMOS 1989 (ETALON 1),NSO,24268.72528676,1 19751U 89001C   24268.72528676  .00000031  00000-0  00000-0 0    14\,2 19751  64.6001  93.8159 0023736 215.8779 158.0448  2.13156168277938,64.6001,0.0023736,2.13156168,93.8159,215.8779,158.0448
19751,COSMOS 1989 (ETALON 1),NSO,24269.60211198,1 19751U 89001C   24269.60211198  .00000039  00000-0  00000-0 0    18\,2 19751  64.6006  93.7858 0023736 215.8820 110.8820  2.13156183277943,64.6006,0.0023736,2.13156183,93.7858,215.882,110.882
19751,COSMOS 1989 (ETALON 1),NSO,24269.65667778,1 19751U 89001C   24269.65667778  .00000039  00000-0  00000-0 0    12\,2 19751  64.6006  93.7839 0023737 215.8824 152.7532  2.13156183277953,64.6006,0.0023737,2.13156183,93.7839,215.8824,152.7532
19751,COSMOS 1989 (ETALON 1),NSO,24270.33604078,1 19751U 89001C   24270.33604078  .00000046  00000-0  00000-0 0    11\,2 19751  64.6009  93.7606 0023738 215.8881 314.0639  2.13156195277967,64.6009,0.0023738,2.13156195,93.7606,215.8881,314.0639
19751,COSMOS 1989 (ETALON 1),NSO,24271.21985726,1 19751U 89001C   24271.21985726  .00000053  00000-0  00000+0 0  7789\,2 19751  64.6014  93.7302 0023739 215.8996 272.2584  2.13156207278053,64.6014,0.0023739,2.13156207,93.7302,215.8996,272.2584
19751,COSMOS 1989 (ETALON 1),NSO,24271.27805172,1 19751U 89001C   24271.27805172  .00000053  00000-0  00000-0 0    11\,2 19751  64.6015  93.7282 0023738 215.9006 316.9136  2.13156209277985,64.6015,0.0023738,2.13156209,93.7282,215.9006,316.9136
19751,COSMOS 1989 (ETALON 1),NSO,24272.46383652,1 19751U 89001C   24272.46383652  .00000059  00000-0  00000-0 0    13\,2 19751  64.6021  93.6874 0023739 215.9166 146.8223  2.13156222278013,64.6021,0.0023739,2.13156222,93.6874,215.9166,146.8223
19751,COSMOS 1989 (ETALON 1),NSO,24273.20257487,1 19751U 89001C   24273.20257487  .00000059  00000-0  00000-0 0    12\,2 19751  64.6025  93.6621 0023737 215.9240 353.6936  2.13156231278028,64.6025,0.0023737,2.13156231,93.6621,215.924,353.6936
19751,COSMOS 1989 (ETALON 1),NSO,24273.88296605,1 19751U 89001C   24273.88296605  .00000058  00000-0  00000-0 0    10\,2 19751  64.6029  93.6387 0023737 215.9231 155.8000  2.13156236278042,64.6029,0.0023737,2.13156236,93.6387,215.9231,155.8
19751,COSMOS 1989 (ETALON 1),NSO,24274.10989873,1 19751U 89001C   24274.10989873  .00000058  00000-0  00000-0 0    12\,2 19751  64.6030  93.6309 0023736 215.9237 329.9387  2.13156238278047,64.603,0.0023736,2.13156238,93.6309,215.9237,329.9387
19751,COSMOS 1989 (ETALON 1),NSO,24274.81985760,1 19751U 89001C   24274.81985760  .00000055  00000-0  00000-0 0    18\,2 19751  64.6034  93.6065 0023737 215.9209 154.7361  2.13156242278063,64.6034,0.0023737,2.13156242,93.6065,215.9209,154.7361
19751,COSMOS 1989 (ETALON 1),NSO,24275.76002091,1 19751U 89001C   24275.76002091  .00000050  00000-0  00000-0 0    15\,2 19751  64.6039  93.5742 0023739 215.9119 156.1895  2.13156246278085,64.6039,0.0023739,2.13156246,93.5742,215.9119,156.1895
19751,COSMOS 1989 (ETALON 1),NSO,24276.42202905,1 19751U 89001C   24276.42202905  .00000047  00000-0  00000-0 0    11\,2 19751  64.6043  93.5515 0023740 215.9103 304.1901  2.13156247278098,64.6043,0.002374,2.13156247,93.5515,215.9103,304.1901
19751,COSMOS 1989 (ETALON 1),NSO,24277.32861312,1 19751U 89001C   24277.32861312  .00000043  00000-0  00000+0 0  7825\,2 19751  64.6048  93.5204 0023745 215.9102 279.8671  2.13156244278181,64.6048,0.0023745,2.13156244,93.5204,215.9102,279.8671
19751,COSMOS 1989 (ETALON 1),NSO,24278.53384187,1 19751U 89001C   24278.53384187  .00000041  00000-0  00000-0 0    12\,2 19751  64.6054  93.4790 0023753 215.9116 124.7109  2.13156237278132,64.6054,0.0023753,2.13156237,93.479,215.9116,124.7109
19751,COSMOS 1989 (ETALON 1),NSO,24279.21966525,1 19751U 89001C   24279.21966525  .00000041  00000-0  00000-0 0    10\,2 19751  64.6057  93.4554 0023752 215.9263 290.9701  2.13156229278152,64.6057,0.0023752,2.13156229,93.4554,215.9263,290.9701
19751,COSMOS 1989 (ETALON 1),NSO,24280.09828049,1 19751U 89001C   24280.09828049  .00000044  00000-0  00000+0 0  7846\,2 19751  64.6062  93.4252 0023756 215.9380 245.1732  2.13156219278242,64.6062,0.0023756,2.13156219,93.4252,215.938,245.1732
19751,COSMOS 1989 (ETALON 1),NSO,24280.23002644,1 19751U 89001C   24280.23002644  .00000044  00000-0  00000-0 0    10\,2 19751  64.6063  93.4207 0023756 215.9369 346.2710  2.13156216278178,64.6063,0.0023756,2.13156216,93.4207,215.9369,346.271
19751,COSMOS 1989 (ETALON 1),NSO,24282.79561435,1 19751U 89001C   24282.79561435  .00000063  00000-0  00000-0 0    12\,2 19751  64.6077  93.3326 0023756 215.9482 154.9909  2.13156177278237,64.6077,0.0023756,2.13156177,93.3326,215.9482,154.9909
19751,COSMOS 1989 (ETALON 1),NSO,24283.73531899,1 19751U 89001C   24283.73531899  .00000071  00000-0  00000-0 0    17\,2 19751  64.6082  93.3003 0023754 215.9433 156.0881  2.13156159278253,64.6082,0.0023754,2.13156159,93.3003,215.9433,156.0881
19751,COSMOS 1989 (ETALON 1),NSO,24284.19117837,1 19751U 89001C   24284.19117837  .00000074  00000-0  00000-0 0    13\,2 19751  64.6085  93.2846 0023754 215.9436 145.8962  2.13156150278261,64.6085,0.0023754,2.1315615,93.2846,215.9436,145.8962
19751,COSMOS 1989 (ETALON 1),NSO,24284.67590473,1 19751U 89001C   24284.67590473  .00000078  00000-0  00000-0 0    11\,2 19751  64.6088  93.2679 0023752 215.9434 157.8563  2.13156141278275,64.6088,0.0023752,2.13156141,93.2679,215.9434,157.8563
19751,COSMOS 1989 (ETALON 1),NSO,24285.37617167,1 19751U 89001C   24285.37617167  .00000082  00000-0  00000+0 0  7874\,2 19751  64.6091  93.2439 0023750 215.9361 335.2207  2.13156126278359,64.6091,0.002375,2.13156126,93.2439,215.9361,335.2207
19751,COSMOS 1989 (ETALON 1),NSO,24285.59540689,1 19751U 89001C   24285.59540689  .00000083  00000-0  00000-0 0    13\,2 19751  64.6093  93.2363 0023750 215.9408 143.4484  2.13156121278282,64.6093,0.002375,2.13156121,93.2363,215.9408,143.4484
19751,COSMOS 1989 (ETALON 1),NSO,24286.50963499,1 19751U 89001C   24286.50963499  .00000086  00000-0  00000-0 0    16\,2 19751  64.6097  93.2049 0023749 215.9499 124.9818  2.13156102278302,64.6097,0.0023749,2.13156102,93.2049,215.9499,124.9818
19751,COSMOS 1989 (ETALON 1),NSO,24287.50731976,1 19751U 89001C   24287.50731976  .00000084  00000-0  00000-0 0    18\,2 19751  64.6102  93.1706 0023744 215.9586 170.5570  2.13156087278337,64.6102,0.0023744,2.13156087,93.1706,215.9586,170.557
19751,COSMOS 1989 (ETALON 1),NSO,24288.21255205,1 19751U 89001C   24288.21255205  .00000080  00000-0  00000-0 0    19\,2 19751  64.6106  93.1464 0023744 215.9600 351.7230  2.13156078278346,64.6106,0.0023744,2.13156078,93.1464,215.96,351.723
19751,COSMOS 1989 (ETALON 1),NSO,24289.18560064,1 19751U 89001C   24289.18560064  .00000071  00000-0  00000-0 0    18\,2 19751  64.6111  93.1129 0023741 215.9724  18.3895  2.13156069278369,64.6111,0.0023741,2.13156069,93.1129,215.9724,18.3895
19751,COSMOS 1989 (ETALON 1),NSO,24289.83438385,1 19751U 89001C   24289.83438385  .00000064  00000-0  00000-0 0    12\,2 19751  64.6114  93.0906 0023736 215.9806 156.2320  2.13156066278383,64.6114,0.0023736,2.13156066,93.0906,215.9806,156.232
19751,COSMOS 1989 (ETALON 1),NSO,24292.65051066,1 19751U 89001C   24292.65051066  .00000031  00000-0  00000+0 0  7912\,2 19751  64.6129  92.9938 0023732 215.9825 157.2145  2.13156073278518,64.6129,0.0023732,2.13156073,92.9938,215.9825,157.2145
19751,COSMOS 1989 (ETALON 1),NSO,24293.52984297,1 19751U 89001C   24293.52984297  .00000026  00000-0  00000-0 0    19\,2 19751  64.6134  92.9636 0023730 215.9811 111.9807  2.13156080278455,64.6134,0.002373,2.1315608,92.9636,215.9811,111.9807
19751,COSMOS 1989 (ETALON 1),NSO,24294.21977639,1 19751U 89001C   24294.21977639  .00000025  00000-0  00000+0 0  7923\,2 19751  64.6137  92.9399 0023729 215.9765 281.4130  2.13156087278549,64.6137,0.0023729,2.13156087,92.9399,215.9765,281.413
19751,COSMOS 1989 (ETALON 1),NSO,24294.48690635,1 19751U 89001C   24294.48690635  .00000025  00000-0  00000-0 0    14\,2 19751  64.6139  92.9307 0023727 215.9772 126.3972  2.13156090278473,64.6139,0.0023727,2.1315609,92.9307,215.9772,126.3972
19751,COSMOS 1989 (ETALON 1),NSO,24295.26272139,1 19751U 89001C   24295.26272139  .00000027  00000-0  00000-0 0    18\,2 19751  64.6143  92.9041 0023729 215.9802   1.7239  2.13156098278491,64.6143,0.0023729,2.13156098,92.9041,215.9802,1.7239
19751,COSMOS 1989 (ETALON 1),NSO,24296.18821705,1 19751U 89001C   24296.18821705  .00000033  00000-0  00000-0 0    16\,2 19751  64.6148  92.8723 0023727 215.9803 351.9125  2.13156112278515,64.6148,0.0023727,2.13156112,92.8723,215.9803,351.9125
19751,COSMOS 1989 (ETALON 1),NSO,24296.86529895,1 19751U 89001C   24296.86529895  .00000039  00000-0  00000-0 0    12\,2 19751  64.6152  92.8490 0023726 215.9797 151.4790  2.13156121278535,64.6152,0.0023726,2.13156121,92.849,215.9797,151.479
19751,COSMOS 1989 (ETALON 1),NSO,24297.80930826,1 19751U 89001C   24297.80930826  .00000046  00000-0  00000-0 0    15\,2 19751  64.6157  92.8166 0023726 215.9894 155.8646  2.13156137278555,64.6157,0.0023726,2.13156137,92.8166,215.9894,155.8646
19751,COSMOS 1989 (ETALON 1),NSO,24298.50169921,1 19751U 89001C   24298.50169921  .00000050  00000-0  00000-0 0    18\,2 19751  64.6161  92.7928 0023725 216.0033 327.1642  2.13156149278565,64.6161,0.0023725,2.13156149,92.7928,216.0033,327.1642
19751,COSMOS 1989 (ETALON 1),NSO,24298.73509742,1 19751U 89001C   24298.73509742  .00000051  00000-0  00000-0 0    13\,2 19751  64.6162  92.7848 0023725 216.0013 146.2667  2.13156151278576,64.6162,0.0023725,2.13156151,92.7848,216.0013,146.2667
